TRANSPORTER-10 OBJECT AD
1 59125U 24043AD  26068.86032889  .00011954  00000+0  36311-3 0  9997
2 59125  97.5470 207.3753 0008984 221.4908 138.5653 15.34189901112026
STARLINK-35594          
1 66157U 25240M   26068.36986020  .00041631  00000+0  14099-2 0  9993
2 66157  53.1614  64.0013 0001623  75.4773 284.6408 15.30198855 21949
